SENTINEL-1A             
1 39634U 14016A   26186.60748097 -.00000116  00000+0 -15000-4 0  9990
2 39634  98.1779 193.8713 0001368  85.1479 274.9877 14.59199489652705
SENTINEL-1C             
1 62261U 24235A   26186.57830045 -.00000101  00000+0 -11760-4 0  9990
2 62261  98.1823 193.6241 0001309  90.6127 269.5223 14.59197681 84095
SENTINEL-1D             
1 66315U 25251A   26185.99559531 -.00000119  00000+0 -15564-4 0  9991
2 66315  98.1835 193.1045 0001306  90.7095 269.4254 14.59197335 35322
